0 INTELSAT 12 (PAS 12)
1 26590U 00068A   13280.05215662  .00000129  00000-0  10000-3 0  1119
2 26590 000.0039 278.0237 0001753 294.1863 227.4254 01.00271890 47425
0 INTELSAT 12 (PAS 12)
1 26590U 00068A   13282.63211859  .00000122  00000-0  10000-3 0  1123
2 26590 000.0026 304.9657 0001960 240.3448 105.6740 01.00273574 47448
0 INTELSAT 12 (PAS 12)
1 26590U 00068A   13287.66786081  .00000111  00000-0  10000-3 0  1145
2 26590 000.0221 306.9619 0002391 245.1414 116.6999 01.00271073 47495
0 INTELSAT 12 (PAS 12)
1 26590U 00068A   13289.15230432  .00000112  00000-0  10000-3 0  1157
2 26590 000.0200 307.0195 0002427 250.3015 287.3408 01.00271734 47516
0 INTELSAT 12 (PAS 12)
1 26590U 00068A   13290.66495804  .00000115  00000-0  10000-3 0  1165
2 26590 000.0175 307.7285 0002510 251.5663 111.4179 01.00272684 47527
0 INTELSAT 12 (PAS 12)
1 26590U 00068A   13293.76638058  .00000121  00000-0  10000-3 0  1177
2 26590 000.0218 333.2108 0002625 244.4161 132.6770 01.00274808 47559
